[{"OBJECT_NAME":"CUBEBEL 2 (EU11S)","OBJECT_ID":"2023-091K","EPOCH":"2026-03-09T21:40:29.186112","MEAN_MOTION":15.26706784,"ECCENTRICITY":0.00118653,"INCLINATION":97.517,"RA_OF_ASC_NODE":131.3579,"ARG_OF_PERICENTER":105.889,"MEAN_ANOMALY":254.3657,"EPHEMERIS_TYPE":0,"CLASSIFICATION_TYPE":"U","NORAD_CAT_ID":57175,"ELEMENT_SET_NO":999,"REV_AT_EPOCH":14914,"BSTAR":0.00056688644,"MEAN_MOTION_DOT":0.00014859,"MEAN_MOTION_DDOT":0},{"OBJECT_NAME":"STARLINK-31955","OBJECT_ID":"2024-106T","EPOCH":"2026-03-09T02:13:08.024736","MEAN_MOTION":15.27582623,"ECCENTRICITY":0.00015786,"INCLINATION":43.0036,"RA_OF_ASC_NODE":335.711,"ARG_OF_PERICENTER":261.2872,"MEAN_ANOMALY":98.7801,"EPHEMERIS_TYPE":0,"CLASSIFICATION_TYPE":"U","NORAD_CAT_ID":59939,"ELEMENT_SET_NO":999,"REV_AT_EPOCH":10047,"BSTAR":-3.5367692e-5,"MEAN_MOTION_DOT":-1.235e-5,"MEAN_MOTION_DDOT":0}]
